[{"OBJECT_NAME":"STARLINK-3851","OBJECT_ID":"2022-045P","EPOCH":"2025-08-24T14:01:18.748992","MEAN_MOTION":15.0883557,"ECCENTRICITY":0.00012559,"INCLINATION":53.2193,"RA_OF_ASC_NODE":4.0284,"ARG_OF_PERICENTER":91.4398,"MEAN_ANOMALY":268.6738,"EPHEMERIS_TYPE":0,"CLASSIFICATION_TYPE":"U","NORAD_CAT_ID":52344,"ELEMENT_SET_NO":999,"REV_AT_EPOCH":18602,"BSTAR":6.146069e-6,"MEAN_MOTION_DOT":-1.9e-6,"MEAN_MOTION_DDOT":0},{"OBJECT_NAME":"STARLINK-3852","OBJECT_ID":"2022-045Q","EPOCH":"2025-08-24T14:39:47.774304","MEAN_MOTION":15.0883973,"ECCENTRICITY":0.00013148,"INCLINATION":53.2194,"RA_OF_ASC_NODE":4.0054,"ARG_OF_PERICENTER":85.8199,"MEAN_ANOMALY":274.2944,"EPHEMERIS_TYPE":0,"CLASSIFICATION_TYPE":"U","NORAD_CAT_ID":52345,"ELEMENT_SET_NO":999,"REV_AT_EPOCH":18601,"BSTAR":3.4280725e-5,"MEAN_MOTION_DOT":2.58e-6,"MEAN_MOTION_DDOT":0},{"OBJECT_NAME":"STARLINK-3812","OBJECT_ID":"2022-045R","EPOCH":"2025-08-24T15:27:28.077408","MEAN_MOTION":15.08837318,"ECCENTRICITY":0.00012404,"INCLINATION":53.2188,"RA_OF_ASC_NODE":3.7015,"ARG_OF_PERICENTER":85.1888,"MEAN_ANOMALY":274.9246,"EPHEMERIS_TYPE":0,"CLASSIFICATION_TYPE":"U","NORAD_CAT_ID":52346,"ELEMENT_SET_NO":999,"REV_AT_EPOCH":18603,"BSTAR":-7.993736e-6,"MEAN_MOTION_DOT":-4.15e-6,"MEAN_MOTION_DDOT":0},{"OBJECT_NAME":"STARLINK-3826","OBJECT_ID":"2022-045S","EPOCH":"2025-08-24T14:07:59.038464","MEAN_MOTION":15.08796276,"ECCENTRICITY":0.00013953,"INCLINATION":53.2188,"RA_OF_ASC_NODE":3.9537,"ARG_OF_PERICENTER":82.0305,"MEAN_ANOMALY":278.0845,"EPHEMERIS_TYPE":0,"CLASSIFICATION_TYPE":"U","NORAD_CAT_ID":52347,"ELEMENT_SET_NO":999,"REV_AT_EPOCH":18602,"BSTAR":0.00045596958,"MEAN_MOTION_DOT":6.968e-5,"MEAN_MOTION_DDOT":0},{"OBJECT_NAME":"STARLINK-3829","OBJECT_ID":"2022-045T","EPOCH":"2025-08-24T13:40:06.083040","MEAN_MOTION":15.08837337,"ECCENTRICITY":0.00013891,"INCLINATION":53.2198,"RA_OF_ASC_NODE":4.026,"ARG_OF_PERICENTER":94.9232,"MEAN_ANOMALY":265.1919,"EPHEMERIS_TYPE":0,"CLASSIFICATION_TYPE":"U","NORAD_CAT_ID":52348,"ELEMENT_SET_NO":999,"REV_AT_EPOCH":18602,"BSTAR":9.6462e-6,"MEAN_MOTION_DOT":-1.34e-6,"MEAN_MOTION_DDOT":0},{"OBJECT_NAME":"STARLINK-3819","OBJECT_ID":"2022-045U","EPOCH":"2025-08-24T15:31:23.227104","MEAN_MOTION":15.08844784,"ECCENTRICITY":8.21e-5,"INCLINATION":53.2192,"RA_OF_ASC_NODE":3.6811,"ARG_OF_PERICENTER":115.5811,"MEAN_ANOMALY":244.5266,"EPHEMERIS_TYPE":0,"CLASSIFICATION_TYPE":"U","NORAD_CAT_ID":52349,"ELEMENT_SET_NO":999,"REV_AT_EPOCH":18603,"BSTAR":-4.1021361e-5,"MEAN_MOTION_DOT":-9.41e-6,"MEAN_MOTION_DDOT":0},{"OBJECT_NAME":"STARLINK-3754","OBJECT_ID":"2022-045V","EPOCH":"2025-08-24T15:10:10.864416","MEAN_MOTION":15.088378,"ECCENTRICITY":0.00013669,"INCLINATION":53.2185,"RA_OF_ASC_NODE":3.7433,"ARG_OF_PERICENTER":82.0199,"MEAN_ANOMALY":278.0948,"EPHEMERIS_TYPE":0,"CLASSIFICATION_TYPE":"U","NORAD_CAT_ID":52350,"ELEMENT_SET_NO":999,"REV_AT_EPOCH":18603,"BSTAR":6.1273593e-5,"MEAN_MOTION_DOT":6.87e-6,"MEAN_MOTION_DDOT":0},{"OBJECT_NAME":"STARLINK-3838","OBJECT_ID":"2022-045X","EPOCH":"2025-08-24T14:54:17.731584","MEAN_MOTION":15.08838238,"ECCENTRICITY":0.00010911,"INCLINATION":53.2184,"RA_OF_ASC_NODE":3.7971,"ARG_OF_PERICENTER":84.2149,"MEAN_ANOMALY":275.8967,"EPHEMERIS_TYPE":0,"CLASSIFICATION_TYPE":"U","NORAD_CAT_ID":52352,"ELEMENT_SET_NO":999,"REV_AT_EPOCH":18603,"BSTAR":-1.8686288e-5,"MEAN_MOTION_DOT":-5.85e-6,"MEAN_MOTION_DDOT":0},{"OBJECT_NAME":"STARLINK-3807","OBJECT_ID":"2022-045Y","EPOCH":"2025-08-24T15:04:55.229664","MEAN_MOTION":15.08824815,"ECCENTRICITY":8.217e-5,"INCLINATION":53.2183,"RA_OF_ASC_NODE":3.7627,"ARG_OF_PERICENTER":79.7742,"MEAN_ANOMALY":280.3343,"EPHEMERIS_TYPE":0,"CLASSIFICATION_TYPE":"U","NORAD_CAT_ID":52353,"ELEMENT_SET_NO":999,"REV_AT_EPOCH":18603,"BSTAR":-0.00017777616,"MEAN_MOTION_DOT":-3.115e-5,"MEAN_MOTION_DDOT":0},{"OBJECT_NAME":"STARLINK-3877","OBJECT_ID":"2022-045AA","EPOCH":"2025-08-24T14:59:35.627424","MEAN_MOTION":15.08837728,"ECCENTRICITY":0.0001239,"INCLINATION":53.2191,"RA_OF_ASC_NODE":3.78,"ARG_OF_PERICENTER":89.5471,"MEAN_ANOMALY":270.5663,"EPHEMERIS_TYPE":0,"CLASSIFICATION_TYPE":"U","NORAD_CAT_ID":52355,"ELEMENT_SET_NO":999,"REV_AT_EPOCH":18603,"BSTAR":-1.8461538e-5,"MEAN_MOTION_DOT":-5.82e-6,"MEAN_MOTION_DDOT":0},{"OBJECT_NAME":"STARLINK-3801","OBJECT_ID":"2022-045AB","EPOCH":"2025-08-24T14:43:41.631456","MEAN_MOTION":15.08837408,"ECCENTRICITY":8.533e-5,"INCLINATION":53.2196,"RA_OF_ASC_NODE":3.8608,"ARG_OF_PERICENTER":78.147,"MEAN_ANOMALY":281.9618,"EPHEMERIS_TYPE":0,"CLASSIFICATION_TYPE":"U","NORAD_CAT_ID":52356,"ELEMENT_SET_NO":999,"REV_AT_EPOCH":18603,"BSTAR":-0.00015558187,"MEAN_MOTION_DOT":-2.763e-5,"MEAN_MOTION_DDOT":0},{"OBJECT_NAME":"STARLINK-3821","OBJECT_ID":"2022-045AC","EPOCH":"2025-08-24T14:48:59.577408","MEAN_MOTION":15.0883957,"ECCENTRICITY":0.00010955,"INCLINATION":53.2201,"RA_OF_ASC_NODE":3.8166,"ARG_OF_PERICENTER":90.1349,"MEAN_ANOMALY":269.9769,"EPHEMERIS_TYPE":0,"CLASSIFICATION_TYPE":"U","NORAD_CAT_ID":52357,"ELEMENT_SET_NO":999,"REV_AT_EPOCH":18603,"BSTAR":-5.274624e-6,"MEAN_MOTION_DOT":-3.72e-6,"MEAN_MOTION_DDOT":0},{"OBJECT_NAME":"STARLINK-3837","OBJECT_ID":"2022-045AD","EPOCH":"2025-08-24T14:22:29.732736","MEAN_MOTION":15.08837036,"ECCENTRICITY":0.00014798,"INCLINATION":53.2196,"RA_OF_ASC_NODE":3.8986,"ARG_OF_PERICENTER":101.8243,"MEAN_ANOMALY":258.2915,"EPHEMERIS_TYPE":0,"CLASSIFICATION_TYPE":"U","NORAD_CAT_ID":52358,"ELEMENT_SET_NO":999,"REV_AT_EPOCH":18603,"BSTAR":-0.00014341568,"MEAN_MOTION_DOT":-2.57e-5,"MEAN_MOTION_DDOT":0},{"OBJECT_NAME":"STARLINK-3853","OBJECT_ID":"2022-045AE","EPOCH":"2025-08-24T14:45:04.898592","MEAN_MOTION":15.08847459,"ECCENTRICITY":0.00013757,"INCLINATION":53.219,"RA_OF_ASC_NODE":3.8381,"ARG_OF_PERICENTER":90.4022,"MEAN_ANOMALY":269.7127,"EPHEMERIS_TYPE":0,"CLASSIFICATION_TYPE":"U","NORAD_CAT_ID":52359,"ELEMENT_SET_NO":999,"REV_AT_EPOCH":18603,"BSTAR":-1.5817275e-5,"MEAN_MOTION_DOT":-5.4e-6,"MEAN_MOTION_DDOT":0},{"OBJECT_NAME":"STARLINK-3728","OBJECT_ID":"2022-045AG","EPOCH":"2025-08-24T14:33:06.593184","MEAN_MOTION":15.08840906,"ECCENTRICITY":0.00010964,"INCLINATION":53.217,"RA_OF_ASC_NODE":3.8651,"ARG_OF_PERICENTER":88.0597,"MEAN_ANOMALY":272.0521,"EPHEMERIS_TYPE":0,"CLASSIFICATION_TYPE":"U","NORAD_CAT_ID":52361,"ELEMENT_SET_NO":999,"REV_AT_EPOCH":18603,"BSTAR":0.00024252857,"MEAN_MOTION_DOT":3.574e-5,"MEAN_MOTION_DDOT":0},{"OBJECT_NAME":"STARLINK-3848","OBJECT_ID":"2022-045AH","EPOCH":"2025-08-24T14:07:55.307712","MEAN_MOTION":15.08842471,"ECCENTRICITY":0.00012664,"INCLINATION":53.2185,"RA_OF_ASC_NODE":353.9435,"ARG_OF_PERICENTER":89.5426,"MEAN_ANOMALY":270.5711,"EPHEMERIS_TYPE":0,"CLASSIFICATION_TYPE":"U","NORAD_CAT_ID":52362,"ELEMENT_SET_NO":999,"REV_AT_EPOCH":18616,"BSTAR":3.5361232e-5,"MEAN_MOTION_DOT":2.75e-6,"MEAN_MOTION_DDOT":0}]
