STARLINK-3851           
1 52344U 22045P   25236.58424478 -.00000190  00000+0  61461-5 0  9994
2 52344  53.2193   4.0284 0001255  91.4398 268.6738 15.08835570186027
STARLINK-3852           
1 52345U 22045Q   25236.61096961  .00000258  00000+0  34281-4 0  9994
2 52345  53.2194   4.0054 0001314  85.8199 274.2944 15.08839730186019
STARLINK-3812           
1 52346U 22045R   25236.64407497 -.00000415  00000+0 -79937-5 0  9993
2 52346  53.2188   3.7015 0001240  85.1888 274.9246 15.08837318186036
STARLINK-3826           
1 52347U 22045S   25236.58887776  .00006968  00000+0  45597-3 0  9999
2 52347  53.2188   3.9537 0001395  82.0305 278.0845 15.08796276186025
STARLINK-3829           
1 52348U 22045T   25236.56951485 -.00000134  00000+0  96462-5 0  9996
2 52348  53.2198   4.0260 0001389  94.9232 265.1919 15.08837337186029
STARLINK-3819           
1 52349U 22045U   25236.64679661 -.00000941  00000+0 -41021-4 0  9996
2 52349  53.2192   3.6811 0000821 115.5811 244.5266 15.08844784186035
STARLINK-3754           
1 52350U 22045V   25236.63207019  .00000687  00000+0  61274-4 0  9998
2 52350  53.2185   3.7433 0001366  82.0199 278.0948 15.08837800186032
STARLINK-3838           
1 52352U 22045X   25236.62103856 -.00000585  00000+0 -18686-4 0  9991
2 52352  53.2184   3.7971 0001091  84.2149 275.8967 15.08838238186036
STARLINK-3807           
1 52353U 22045Y   25236.62841701 -.00003115  00000+0 -17778-3 0  9992
2 52353  53.2183   3.7627 0000821  79.7742 280.3343 15.08824815186037
STARLINK-3877           
1 52355U 22045AA  25236.62471791 -.00000582  00000+0 -18462-4 0  9999
2 52355  53.2191   3.7800 0001239  89.5471 270.5663 15.08837728186036
STARLINK-3801           
1 52356U 22045AB  25236.61367629 -.00002763  00000+0 -15558-3 0  9998
2 52356  53.2196   3.8608 0000853  78.1470 281.9618 15.08837408186034
STARLINK-3821           
1 52357U 22045AC  25236.61735622 -.00000372  00000+0 -52746-5 0  9997
2 52357  53.2201   3.8166 0001095  90.1349 269.9769 15.08839570186034
STARLINK-3837           
1 52358U 22045AD  25236.59895524 -.00002570  00000+0 -14342-3 0  9993
2 52358  53.2196   3.8986 0001479 101.8243 258.2915 15.08837036186036
STARLINK-3853           
1 52359U 22045AE  25236.61464003 -.00000540  00000+0 -15817-4 0  9995
2 52359  53.2190   3.8381 0001375  90.4022 269.7127 15.08847459186035
STARLINK-3728           
1 52361U 22045AG  25236.60632631  .00003574  00000+0  24253-3 0  9992
2 52361  53.2170   3.8651 0001096  88.0597 272.0521 15.08840906186031
STARLINK-3848           
1 52362U 22045AH  25236.58883458  .00000275  00000+0  35361-4 0  9993
2 52362  53.2185 353.9435 0001266  89.5426 270.5711 15.08842471186160
